[{"OBJECT_NAME":"STARLINK-2570","OBJECT_ID":"2021-038BE","EPOCH":"2026-03-09T21:34:35.486112","MEAN_MOTION":15.30189438,"ECCENTRICITY":0.00011491,"INCLINATION":53.1602,"RA_OF_ASC_NODE":331.8971,"ARG_OF_PERICENTER":114.9213,"MEAN_ANOMALY":245.1907,"EPHEMERIS_TYPE":0,"CLASSIFICATION_TYPE":"U","NORAD_CAT_ID":48405,"ELEMENT_SET_NO":999,"REV_AT_EPOCH":26746,"BSTAR":-2.4708859e-5,"MEAN_MOTION_DOT":-1.091e-5,"MEAN_MOTION_DDOT":0},{"OBJECT_NAME":"NUSAT-50 (NANCY ROMAN)","OBJECT_ID":"2024-149AB","EPOCH":"2026-03-09T19:15:16.765632","MEAN_MOTION":15.29713355,"ECCENTRICITY":0.00025229,"INCLINATION":97.3817,"RA_OF_ASC_NODE":150.7693,"ARG_OF_PERICENTER":238.0469,"MEAN_ANOMALY":122.0527,"EPHEMERIS_TYPE":0,"CLASSIFICATION_TYPE":"U","NORAD_CAT_ID":60493,"ELEMENT_SET_NO":999,"REV_AT_EPOCH":8693,"BSTAR":0.0004225155,"MEAN_MOTION_DOT":0.00012094,"MEAN_MOTION_DDOT":0}]
